{
  "norad_id": 64553,
  "name": "CONNECTA IOT-12",
  "history": [
    {
      "epoch": "2026-03-28T20:54:19.038816",
      "apogee_km": 502.4648524792774,
      "perigee_km": 500.8935024643424,
      "latitude_deg": 42.956478855266774,
      "longitude_deg": -1.0788457600865513,
      "semi_major_axis_km": 6879.816177471809,
      "eccentricity": 0.0001142,
      "inclination_deg": 97.4635,
      "raan_deg": 204.0755,
      "arg_perigee_deg": 59.314,
      "mean_anomaly_deg": 300.8208,
      "mean_motion_rev_day": 15.21379326
    }
  ]
}