{"fetched_at":"2026-03-30T09:12:31Z","count":15922,"tles":[{"name":"CONNECTA IOT-12","line1":"1 64553U 25135AB  26087.87105369  .00005331  00000+0  24088-3 0  9997","line2":"2 64553  97.4635 204.0755 0001142  59.3140 300.8208 15.21379326 42660","category":"Other"}]}